#aV2024  4  6  0  0  0.00000000     288 DD+AD WGS84 FIT  NGA
## 2308 518400.00000000   300.00000000 60406 0.0000000000000
+   32     1  2  3  4  5  6  7  8  9 10 11 12 13 14 15 16 17
+         18 19 20 21 22 23 24 25 26 27 28 29 30 31 32  0  0
+          0  0  0  0  0  0  0  0  0  0  0  0  0  0  0  0  0
+          0  0  0  0  0  0  0  0  0  0  0  0  0  0  0  0  0
+          0  0  0  0  0  0  0  0  0  0  0  0  0  0  0  0  0
++         2  2  2  2  2  2  2  2  2  2  2  2  2  2  2  2  2
++         2  2  2  2  2  2  2  2  2  2  2  2  2  2  2  0  0
++         0  0  0  0  0  0  0  0  0  0  0  0  0  0  0  0  0
++         0  0  0  0  0  0  0  0  0  0  0  0  0  0  0  0  0
++         0  0  0  0  0  0  0  0  0  0  0  0  0  0  0  0  0
%c cc cc ccc ccc cccc cccc cccc cccc ccccc ccccc ccccc ccccc
%c cc cc ccc ccc cccc cccc cccc cccc ccccc ccccc ccccc ccccc
%f  0.0000000  0.000000000  0.00000000000  0.000000000000000
%f  0.0000000  0.000000000  0.00000000000  0.000000000000000
%i    0    0    0    0      0      0      0      0         0
%i    0    0    0    0      0      0      0      0         0
/*      NGA, ST. LOUIS,MO.                                  
/*   EPHEMERIS COMPUTED FROM 2 DAYS OF DATA                 
/*   EPOCHA v9 SMOOTHER                                     
/*   G2296 IERS2010 SATIGS SATAPC                           
*  2024  4  6 15 25  0.00000000
P  1  10460.837813 -24146.072781  -2188.914921    178.267444                    
V  1   2942.542336  -1176.398532  32476.060847      0.023568                    
P  2  14683.908933 -19858.891581   9874.105171   -457.899148                    
V  2  -1904.568345  12018.234727  28667.813964      0.063838                    
P  3  17168.404498 -12217.569626 -16240.721697    295.581574                    
V  3  20398.583979   -169.481107  22008.060537      0.215620                    
P  4   7899.436625 -14418.456168 -20816.029014    332.572632                    
V  4  15053.273142  21814.164156  -9519.125640      0.088475                    
P  5 -25720.992807   5766.156851   3462.801270   -168.153676                    
V  5  -4872.761039  -1803.499513 -31508.666738     -0.013860                    
P  6  -9757.625308 -12094.841869 -21455.489615    334.407725                    
V  6  12486.988557 -24324.080041   8117.444042     -0.175836                    
P  7   3168.885535 -24163.870349  10464.449390   -101.304062                    
V  7   8154.857811 -10233.106315 -27891.516257     -0.085508                    
P  8  14713.200056  -5582.783962  21334.435695    105.244385                    
V  8  16044.393289  22108.160520  -4831.793683      0.240204                    
P  9  -4353.991614 -22341.794323 -13720.626219    150.848950                    
V  9  12048.784099  12649.416992 -24614.331145      0.134937                    
P 10  15769.221064  11127.013662  18597.066978     -5.989248                    
V 10 -22860.102787   2813.591576  17590.410027     -0.038154                    
P 11 -16564.653259    680.023059 -20717.398484   -628.858649                    
V 11  11619.567861 -23667.378267 -10102.684902     -0.108434                    
P 12 -18860.357123  10970.395964 -15391.254403   -494.125588                    
V 12 -19078.222954  -1658.292743  22675.629477     -0.034883                    
P 13 -17240.777012  -4534.870415  19559.244445    640.504646                    
V 13 -10362.853839 -22969.579863 -14089.532203      0.031790                    
P 14 -11692.786498 -13559.126871  19706.024026    369.563240                    
V 14  24843.305911  -2658.166563  12730.159527      0.095790                    
P 15 -14052.226117   7486.716131  20787.595541    145.573328                    
V 15 -18578.356301 -20446.112789  -4878.264260      0.040422                    
P 16  26799.098515    628.720407   -738.401245   -323.309342                    
V 16   -533.218060   2379.972001 -31474.188034      0.092504                    
P 17 -12384.105152 -23331.940661   2186.465859    711.187648                    
V 17   3446.503916    574.460770  31889.742626      0.004413                    
P 18  -3492.914631  23836.615597  10978.402258   -589.675341                    
V 18  -8163.215679  11543.085651 -27874.324857     -0.068836                    
P 19 -16743.289068 -19422.844214  -7813.895469    464.447252                    
V 19  -2772.498482  -9385.125409  29615.333750      0.053325                    
P 20 -25069.698459    404.328061  -8467.834844    381.168645                    
V 20   9775.454312  -5641.177242 -29147.603915     -0.013983                    
P 21  16157.514723 -15192.652791  14274.300171    128.333706                    
V 21  -3605.354334  17594.952850  24555.888841     -0.015792                    
P 22 -18481.206369 -11115.700237  15730.114945      4.530100                    
V 22  19344.857543  -1866.648399  22289.241820     -0.057105                    
P 23   2519.070340  14646.204000  22040.913030    194.540494                    
V 23 -27700.157228   3078.791108    935.137809      0.090528                    
P 24 -14956.277163  18824.503047  10406.049457   -456.130851                    
V 24   1359.218091 -14406.117797  27361.533811     -0.046665                    
P 25  -8402.582761  15361.295862 -20238.143788    493.148565                    
V 25 -25056.913561   1269.235986  11825.065461      0.008817                    
P 26  23087.003623   5582.647549 -12399.120054    170.199683                    
V 26 -14801.061405   5185.936598 -25169.040588     -0.049294                    
P 27  19272.283254   7083.532126  16794.125769    -16.949984                    
V 27  11190.616745  18663.189635 -19947.087585     -0.024400                    
P 28   9020.061911  14678.500986 -20230.344588   -192.790718                    
V 28 -11131.652104  23132.160221  11824.985897     -0.148040                    
P 29    588.062867  21681.115542 -15309.601956   -602.705348                    
V 29 -11362.555606 -15786.628177 -22975.608843      0.011631                    
P 30  -5488.676013 -18968.033131  17776.802567   -409.134411                    
V 30  11567.990117 -19393.439266 -17526.401180      0.054816                    
P 31  15079.708230   4187.530949 -21700.492522   -228.032192                    
V 31 -11961.885269  24254.159011  -3275.021522      0.000037                    
P 32  15726.592296  21527.806915   -574.735786   -617.698342                    
V 32  -1588.553850   2320.516044  31621.337843     -0.006669                    
EOF
